KONDOR-FKA NO. 2        
1 62138U 24223A   26180.22816440  .00002733  00000+0  13129-3 0  9990
2 62138  97.4411  23.4994 0001681  95.0199 265.1228 15.19672685 87537
STARLINK-32529          
1 62139U 24224A   26179.55972275  .00021879  00000+0  80180-3 0  9998
2 62139  42.9981 252.2088 0001470 272.8644  87.2040 15.27597783 89370
STARLINK-32464          
1 62140U 24224B   26179.63281769  .00012975  00000+0  48007-3 0  9999
2 62140  43.0020 251.8751 0001565 277.5270  82.5404 15.27589340 89385
STARLINK-32482          
1 62141U 24224C   26179.92122406  .00011604  00000+0  43069-3 0  9995
2 62141  42.9996 249.7417 0000824 248.2224 111.8540 15.27567091 89333
STARLINK-32454          
1 62142U 24224D   26179.91652931  .00018316  00000+0  67306-3 0  9993
2 62142  42.9999 257.4847 0000971 308.4656  51.6108 15.27599219 89407
STARLINK-32485          
1 62143U 24224E   26179.91429625  .00020155  00000+0  73987-3 0  9992
2 62143  42.9995 253.1469 0000456 315.4400  44.6415 15.27582848 89021
STARLINK-32388          
1 62144U 24224F   26179.91266738  .00011906  00000+0  44148-3 0  9998
2 62144  42.9971 257.4552 0001172 281.7405  78.3315 15.27580205 89402
STARLINK-32374          
1 62145U 24224G   26179.61611597  .00023378  00000+0  85588-3 0  9992
2 62145  42.9985 251.7491 0001209 272.1403  87.9310 15.27599249 89443
STARLINK-32384          
1 62146U 24224H   26178.89814514  .00013708  00000+0  50649-3 0  9992
2 62146  42.9984 255.8212 0001165 289.8371  70.2355 15.27595498 89333
STARLINK-32295          
1 62147U 24224J   26179.62767429  .00007509  00000+0  28203-3 0  9990
2 62147  42.9973 251.8354 0001326 281.0068  79.0634 15.27588230 89334
STARLINK-32479          
1 62148U 24224K   26179.60711570  .00014872  00000+0  54859-3 0  9992
2 62148  42.9994 251.6877 0001692 274.2089  85.8570 15.27595617 89385
STARLINK-32468          
1 62149U 24224L   26179.60582930  .00016243  00000+0  59808-3 0  9992
2 62149  43.0007 251.6755 0001851 272.2511  87.8128 15.27600470 89287
STARLINK-32629          
1 62150U 24224M   26179.64424404  .00009072  00000+0  33881-3 0  9994
2 62150  42.9932 251.1030 0000750  79.3252 280.7684 15.27576490 89454
STARLINK-32644          
1 62151U 24224N   26179.56100256  .00017778  00000+0  65384-3 0  9997
2 62151  42.9988 252.1921 0001485 279.3503  80.7181 15.27587223 89437
STARLINK-32623          
1 62152U 24224P   26179.66301696  .00014464  00000+0  53400-3 0  9995
2 62152  43.0038 254.7009 0001093 313.3388  46.7372 15.27585760 89355
STARLINK-32639          
1 62153U 24224Q   26179.49304620  .00016860  00000+0  62046-3 0  9995
2 62153  42.9997 252.5430 0000146 219.4899 140.5942 15.27598009 89269
STARLINK-32625          
1 62154U 24224R   26179.69691992  .00023418  00000+0  85755-3 0  9998
2 62154  42.9976 251.4936 0001664 272.6185  87.4476 15.27589628 89348
STARLINK-32635          
1 62155U 24224S   26179.59344398  .00010455  00000+0  38875-3 0  9991
2 62155  43.0005 259.3581 0001199 283.6591  76.4128 15.27594875 89198
STARLINK-32532          
1 62156U 24224T   26179.92505119  .00014626  00000+0  53980-3 0  9997
2 62156  42.9999 249.7687 0001472 286.1776  73.8914 15.27590594 89330
STARLINK-32503          
1 62157U 24224U   26179.64726329  .00011978  00000+0  44390-3 0  9997
2 62157  42.9988 258.9005 0001456 282.3778  77.6910 15.27594659 88936
STARLINK-32508          
1 62158U 24224V   26179.67507188  .00005539  00000+0  21061-3 0  9997
2 62158  42.9973 251.3308 0001549 281.1003  78.9674 15.27587898 89451
STARLINK-32524          
1 62159U 24224W   26179.60921734  .00018812  00000+0  69093-3 0  9993
2 62159  43.0005 255.1614 0001715 282.0239  78.0421 15.27601795 89249
STARLINK-32484          
1 62160U 24224X   26179.56485880  .00011838  00000+0  43885-3 0  9999
2 62160  42.9987 252.2183 0001511 272.6664  87.4014 15.27593059 89434
STARLINK-32497          
1 62161U 24224Y   26179.92841354  .00020570  00000+0  75482-3 0  9993
2 62161  43.0086 253.2529 0004224 266.3722  93.6646 15.27579841 89445
STARLINK-32526          
1 62162U 24224Z   26179.93228094  .00008709  00000+0  32553-3 0  9997
2 62162  42.9995 253.2869 0001698 285.9368  74.1296 15.27588955 89446
STARLINK-32523          
1 62165U 24225C   26179.91595645  .00003191  00000+0  27505-3 0  9999
2 62165  70.0004 244.0907 0003945 268.7219  91.3488 14.98336008 86532
STARLINK-32551          
1 62166U 24225D   26179.55711415  .00010841  00000+0  91545-3 0  9990
2 62166  70.0011 244.8554 0004144 259.7547 100.3144 14.98306879 86480
STARLINK-32506          
1 62167U 24225E   26179.59885270  .00002679  00000+0  23218-3 0  9998
2 62167  69.9998 244.9920 0003881 266.8323  93.2392 14.98334676 86489
STARLINK-32562          
1 62168U 24225F   26179.56963931  .00002207  00000+0  19273-3 0  9990
2 62168  70.0002 244.8889 0003623 270.4438  89.6306 14.98330582 86480
STARLINK-32558          
1 62169U 24225G   26179.91178701  .00001617  00000+0  14332-3 0  9998
2 62169  70.0000 244.0754 0003708 270.3396  89.7338 14.98329628 86539
