OBJECT_NAME,OBJECT_ID,EPOCH,MEAN_MOTION,ECCENTRICITY,INCLINATION,RA_OF_ASC_NODE,ARG_OF_PERICENTER,MEAN_ANOMALY,EPHEMERIS_TYPE,CLASSIFICATION_TYPE,NORAD_CAT_ID,ELEMENT_SET_NO,REV_AT_EPOCH,BSTAR,MEAN_MOTION_DOT,MEAN_MOTION_DDOT
KONDOR-FKA NO. 2,2024-223A,2026-06-29T05:28:33.404160,15.19672685,.0001681,97.4411,23.4994,95.0199,265.1228,0,U,62138,999,8753,.13129E-3,.2733E-4,0
STARLINK-32529,2024-224A,2026-06-28T13:26:00.045600,15.27597783,.00014701,42.9981,252.2088,272.8644,87.2040,0,U,62139,999,8937,.80179868E-3,.21879E-3,0
STARLINK-32464,2024-224B,2026-06-28T15:11:15.448416,15.27589340,.0001565,43.0020,251.8751,277.5270,82.5404,0,U,62140,999,8938,.48007071E-3,.12975E-3,0
STARLINK-32482,2024-224C,2026-06-28T22:06:33.758784,15.27567091,.00008248,42.9996,249.7417,248.2224,111.8540,0,U,62141,999,8933,.43069057E-3,.11604E-3,0
STARLINK-32454,2024-224D,2026-06-28T21:59:48.132384,15.27599219,.0000971,42.9999,257.4847,308.4656,51.6108,0,U,62142,999,8940,.67306206E-3,.18316E-3,0
STARLINK-32485,2024-224E,2026-06-28T21:56:35.196000,15.27582848,.00004564,42.9995,253.1469,315.4400,44.6415,0,U,62143,999,8902,.73986876E-3,.20155E-3,0
STARLINK-32388,2024-224F,2026-06-28T21:54:14.461632,15.27580205,.0001172,42.9971,257.4552,281.7405,78.3315,0,U,62144,999,8940,.44147926E-3,.11906E-3,0
STARLINK-32374,2024-224G,2026-06-28T14:47:12.419808,15.27599249,.00012097,42.9985,251.7491,272.1403,87.9310,0,U,62145,999,8944,.85588282E-3,.23378E-3,0
STARLINK-32384,2024-224H,2026-06-27T21:33:19.740096,15.27595498,.0001165,42.9984,255.8212,289.8371,70.2355,0,U,62146,999,8933,.50649E-3,.13708E-3,0
STARLINK-32295,2024-224J,2026-06-28T15:03:51.058656,15.27588230,.00013263,42.9973,251.8354,281.0068,79.0634,0,U,62147,999,8933,.28202851E-3,.7509E-4,0
STARLINK-32479,2024-224K,2026-06-28T14:34:14.796480,15.27595617,.00016929,42.9994,251.6877,274.2089,85.8570,0,U,62148,999,8938,.54858696E-3,.14872E-3,0
STARLINK-32468,2024-224L,2026-06-28T14:32:23.651520,15.27600470,.0001851,43.0007,251.6755,272.2511,87.8128,0,U,62149,999,8928,.59808433E-3,.16243E-3,0
STARLINK-32629,2024-224M,2026-06-28T15:27:42.685056,15.27576490,.00007503,42.9932,251.1030,79.3252,280.7684,0,U,62150,999,8945,.33881225E-3,.9072E-4,0
STARLINK-32644,2024-224N,2026-06-28T13:27:50.621184,15.27587223,.00014853,42.9988,252.1921,279.3503,80.7181,0,U,62151,999,8943,.65383808E-3,.17778E-3,0
STARLINK-32623,2024-224P,2026-06-28T15:54:44.665344,15.27585760,.00010938,43.0038,254.7009,313.3388,46.7372,0,U,62152,999,8935,.53399766E-3,.14464E-3,0
STARLINK-32639,2024-224Q,2026-06-28T11:49:59.191680,15.27598009,.00001463,42.9997,252.5430,219.4899,140.5942,0,U,62153,999,8926,.62045532E-3,.1686E-3,0
STARLINK-32625,2024-224R,2026-06-28T16:43:33.881088,15.27589628,.00016642,42.9976,251.4936,272.6185,87.4476,0,U,62154,999,8934,.85754936E-3,.23418E-3,0
STARLINK-32635,2024-224S,2026-06-28T14:14:33.559872,15.27594875,.00011993,43.0005,259.3581,283.6591,76.4128,0,U,62155,999,8919,.38874582E-3,.10455E-3,0
STARLINK-32532,2024-224T,2026-06-28T22:12:04.422816,15.27590594,.00014722,42.9999,249.7687,286.1776,73.8914,0,U,62156,999,8933,.53979978E-3,.14626E-3,0
STARLINK-32503,2024-224U,2026-06-28T15:32:03.548256,15.27594659,.00014562,42.9988,258.9005,282.3778,77.6910,0,U,62157,999,8893,.44390273E-3,.11978E-3,0
STARLINK-32508,2024-224V,2026-06-28T16:12:06.210432,15.27587898,.00015495,42.9973,251.3308,281.1003,78.9674,0,U,62158,999,8945,.21061104E-3,.5539E-4,0
STARLINK-32524,2024-224W,2026-06-28T14:37:16.378176,15.27601795,.00017159,43.0005,255.1614,282.0239,78.0421,0,U,62159,999,8924,.69093438E-3,.18812E-3,0
STARLINK-32484,2024-224X,2026-06-28T13:33:23.800320,15.27593059,.00015117,42.9987,252.2183,272.6664,87.4014,0,U,62160,999,8943,.43885124E-3,.11838E-3,0
STARLINK-32497,2024-224Y,2026-06-28T22:16:54.929856,15.27579841,.00042249,43.0086,253.2529,266.3722,93.6646,0,U,62161,999,8944,.75481881E-3,.2057E-3,0
STARLINK-32526,2024-224Z,2026-06-28T22:22:29.073216,15.27588955,.0001698,42.9995,253.2869,285.9368,74.1296,0,U,62162,999,8944,.32552835E-3,.8709E-4,0
STARLINK-32523,2024-225C,2026-06-28T21:58:58.637280,14.98336008,.00039451,70.0004,244.0907,268.7219,91.3488,0,U,62165,999,8653,.27504676E-3,.3191E-4,0
STARLINK-32551,2024-225D,2026-06-28T13:22:14.662560,14.98306879,.00041448,70.0011,244.8554,259.7547,100.3144,0,U,62166,999,8648,.91545141E-3,.10841E-3,0
STARLINK-32506,2024-225E,2026-06-28T14:22:20.873280,14.98334676,.00038812,69.9998,244.9920,266.8323,93.2392,0,U,62167,999,8648,.2321847E-3,.2679E-4,0
STARLINK-32562,2024-225F,2026-06-28T13:40:16.836384,14.98330582,.00036239,70.0002,244.8889,270.4438,89.6306,0,U,62168,999,8648,.19272706E-3,.2207E-4,0
STARLINK-32558,2024-225G,2026-06-28T21:52:58.397664,14.98329628,.00037085,70.0000,244.0754,270.3396,89.7338,0,U,62169,999,8653,.14331531E-3,.1617E-4,0
